GPS BIIA-10 (PRN 32)|1 20959U 90103A   14260.11104167 -.00000022  00000-0  00000+0 0  5004|2 20959  54.2874 205.3141 0114457 353.9930   5.8519  2.00566165174378*GPS BIIA-14 (PRN 26)|1 22014U 92039A   14260.13550089  .00000018  00000-0  00000+0 0  2896|2 22014  55.8007 266.1682 0209869  73.8404  81.0646  2.00562147156090*GPS BIIA-23 (PRN 04)|1 22877U 93068A   14260.27973175 -.00000040  00000-0  00000+0 0  8900|2 22877  53.7895 139.8849 0108850  61.0442  73.6503  2.00759624153093*GPS BIIA-26 (PRN 10)|1 23953U 96041A   14260.11950560 -.00000028  00000-0  00000+0 0  5404|2 23953  53.9615 201.1749 0138025  49.8883 203.1021  2.00569469133160*GPS BIIR-2  (PRN 13)|1 24876U 97035A   14260.47625193  .00000018  00000-0  00000+0 0  9933|2 24876  55.9512 266.6800 0050808 135.0678  10.4782  2.00552750125708*GPS BIIA-28 (PRN 08)|1 25030U 97067A   14259.84902800 -.00000086  00000-0  00000+0 0  9625|2 25030  57.0678 327.7523 0147068 205.3710 149.9283  2.00738881123580*GPS BIIR-3  (PRN 11)|1 25933U 99055A   14260.03047063 -.00000031  00000-0  10000-3 0  4181|2 25933  51.0679 121.7942 0152576  76.2266 285.5449  2.00558497109516*GPS BIIR-4  (PRN 20)|1 26360U 00025A   14260.27596560 -.00000036  00000-0  00000+0 0  5329|2 26360  53.0925 196.7424 0057838  75.3261  12.7796  2.00557009105209*GPS BIIR-5  (PRN 28)|1 26407U 00040A   14260.41952111 -.00000076  00000-0  00000+0 0  4763|2 26407  56.5830  24.2748 0195935 262.0401  45.2543  2.00563472103884*GPS BIIR-6  (PRN 14)|1 26605U 00071A   14260.27087756  .00000018  00000-0  00000+0 0  4827|2 26605  55.5234 264.8161 0081142 247.1970 243.6532  2.00558057101479*GPS BIIR-7  (PRN 18)|1 26690U 01004A   14260.32296538 -.00000033  00000-0  00000+0 0  3674|2 26690  53.0311 199.7739 0156927 245.0581  16.5698  2.00556406 99885*GPS BIIR-8  (PRN 16)|1 27663U 03005A   14260.40266708 -.00000077  00000-0  00000+0 0  8036|2 27663  56.6658  23.9514 0075947  11.7991  41.6206  2.00565210 85245*GPS BIIR-9  (PRN 21)|1 27704U 03010A   14260.25130672 -.00000041  00000-0  00000+0 0  6816|2 27704  53.4439 139.9302 0218119 245.9205  19.1483  2.00561070 84049*GPS BIIR-10 (PRN 22)|1 28129U 03058A   14260.31657588 -.00000033  00000-0  00000+0 0  2555|2 28129  52.9044 199.8697 0075472 243.1452 340.1085  2.00557250 78746*GPS BIIR-11 (PRN 19)|1 28190U 04009A   14260.37559274  .00000003  00000-0  00000+0 0  2601|2 28190  55.4014  85.8690 0105170  27.4822 280.5946  2.00566005 76928*GPS BIIR-12 (PRN 23)|1 28361U 04023A   14259.56980615  .00000016  00000-0  00000+0 0   728|2 28361  54.4753 260.9853 0097985 204.7447  32.4002  2.00556777 74987*GPS BIIR-13 (PRN 02)|1 28474U 04045A   14260.43063306 -.00000038  00000-0  00000+0 0  9739|2 28474  53.8462 138.9779 0139029 223.7138 278.5397  2.00562398 72363*GPS BIIRM-1 (PRN 17)|1 28874U 05038A   14260.37287961  .00000003  00000-0  00000+0 0  2086|2 28874  55.5679  82.9789 0096837 240.3887 326.1255  2.00566454 65766*GPS BIIRM-2 (PRN 31)|1 29486U 06042A   14260.26434044 -.00000077  00000-0  00000+0 0  6240|2 29486  56.0079 322.2764 0082126 322.1977  86.5244  2.00569148 58483*GPS BIIRM-3 (PRN 12)|1 29601U 06052A   14260.21221159 -.00000078  00000-0  00000+0 0  4368|2 29601  56.6324  22.8932 0049454  26.3318  27.1592  2.00579459 57392*GPS BIIRM-4 (PRN 15)|1 32260U 07047A   14260.19603226  .00000015  00000-0  00000+0 0  3521|2 32260  53.6099 258.1876 0065205  13.9305 156.7292  2.00552257 50772*GPS BIIRM-5 (PRN 29)|1 32384U 07062A   14260.24874957  .00000002  00000-0  00000+0 0  3809|2 32384  55.6121  83.5083 0013287 307.2499  35.2563  2.00568494 49504*GPS BIIRM-6 (PRN 07)|1 32711U 08012A   14260.36418883 -.00000076  00000-0  10000-3 0  1326|2 32711  55.7258 321.8916 0079654 201.8003 157.9168  2.00570856 47723*GPS BIIRM-8 (PRN 05)|1 35752U 09043A   14260.17617609 -.00000029  00000-0  00000+0 0  8998|2 35752  54.2596 200.2214 0037688  16.1213 234.2735  2.00561853 37299*GPS BIIF-1  (PRN 25)|1 36585U 10022A   14260.27665661 -.00000083  00000-0  00000+0 0  7094|2 36585  55.9823  20.3861 0035115  38.1884  32.0432  2.00578614 31548*GPS BIIF-2  (PRN 01)|1 37753U 11036A   14260.20407833 -.00000040  00000-0  00000+0 0  1778|2 37753  55.0746 140.8243 0034434  20.2040  78.1135  2.00563483 23227*GPS BIIF-3  (PRN 24)|1 38833U 12053A   14258.05983614 -.00000082  00000-0  00000+0 0  7327|2 38833  54.7706 319.8909 0021885   7.6520 352.4395  2.00559743 14246*GPS BIIF-4  (PRN 27)|1 39166U 13023A   14257.91344926 -.00000020  00000-0  10000-3 0  5039|2 39166  55.2678  80.4283 0014075  10.7675 349.3062  2.00563184  9766*GPS BIIF-5  (PRN 30)|1 39533U 14008A   14259.40819167 -.00000086  00000-0  00000+0 0  2428|2 39533  54.9032 324.9611 0010265 189.5287 170.5076  2.00564539  4169*GPS BIIF-6  (PRN 06)|1 39741U 14026A   14258.69389229 -.00000041  00000-0  00000+0 0  1127|2 39741  55.0732 140.3956 0003099 145.3158 214.7630  2.00572832  2435*HISPASAT 1C|1 26071U 00007A   14260.35498566 -.00000238  00000-0  10000-3 0  3422|2 26071   0.0488  43.0723 0002502 145.0421 212.0211  1.00270724 53621*HISPASAT 1D|1 27528U 02044A   14260.33251405 -.00000242  00000-0  00000+0 0  2069|2 27528   0.0386 242.4964 0005503 307.1581 256.2299  1.00273127 43962*ASTRA 4A (SIRIUS 4)|1 32299U 07057A   14257.29224764  .00000004  00000-0  00000+0 0  1916|2 32299   0.0119  83.1306 0002933 105.6017 274.4570  1.00273056 24971*HISPASAT 1E|1 37264U 10070A   14260.16123844 -.00000243  00000-0  00000+0 0  9801|2 37264   0.0324 130.5563 0005595  34.6160 218.8747  1.00270833 13645*COSMOS 2473|1 37806U 11048A   14260.05749089 -.00000162  00000-0  10000-3 0  8547|2 37806   0.0535  91.7165 0001726 175.9097 188.9441  1.00272299 11045*ISS (ZARYA)|1 25544U 98067A   14260.41419823  .00018301  00000-0  32364-3 0  1003|2 25544  51.6468   2.4717 0002313 110.2063   6.2703 15.50372445905632*IRIDIUM 8 [+]|1 24792U 97020A   14260.33745385  .00000414  00000-0  14082-3 0  9754|2 24792  86.4004  18.2919 0002282 112.2808 247.8630 14.34219735909315*IRIDIUM 7 [+]|1 24793U 97020B   14260.40938123  .00000418  00000-0  14216-3 0  9693|2 24793  86.4006  18.4889 0002272 113.0427 291.0793 14.34216227909326*IRIDIUM 6 [+]|1 24794U 97020C   14260.39451839  .00000417  00000-0  14185-3 0  7744|2 24794  86.4017  18.4471 0001870 105.0008 255.1395 14.34211112909322*IRIDIUM 5 [+]|1 24795U 97020D   14260.38819216  .00000044  00000-0  86204-5 0  1845|2 24795  86.4005  18.5343 0002051 111.4158 248.7257 14.34220067909401*IRIDIUM 4 [-]|1 24796U 97020E   14260.44460065  .00000391  00000-0  13134-3 0  9985|2 24796  86.4003  17.9732 0002306 110.9965 291.6490 14.34695253909362*IRIDIUM 914 [-]|1 24836U 97030A   14260.37036367  .00000425  00000-0  13343-3 0  5376|2 24836  86.3953  37.4535 0003466 132.1122 257.3058 14.38292030904631*IRIDIUM 12 [+]|1 24837U 97030B   14260.40982637  .00000277  00000-0  91831-4 0  9830|2 24837  86.3954  49.6817 0002137 110.8812 277.7705 14.34220658903079*IRIDIUM 10 [+]|1 24839U 97030D   14260.39728964  .00000259  00000-0  85532-4 0  9999|2 24839  86.3954  49.6730 0002193 111.3234 278.1126 14.34221602903084*IRIDIUM 13 [+]|1 24840U 97030E   14260.41602726  .00000235  00000-0  76844-4 0  9283|2 24840  86.3955  49.7842 0002067 114.7407 273.2128 14.34217080903073*IRIDIUM 16 [-]|1 24841U 97030F   14260.40352025  .00000447  00000-0  14667-3 0  9433|2 24841  86.4034  50.2682 0001178  50.8401 338.5620 14.36197070903483*IRIDIUM 911 [-]|1 24842U 97030G   14260.40088080  .00000598  00000-0  16780-3 0  6488|2 24842  86.4456  51.6279 0015396 175.5738 215.4720 14.44331777908026*IRIDIUM 15 [+]|1 24869U 97034A   14260.47675703  .00000182  00000-0  58007-4 0   642|2 24869  86.3920  81.3805 0002070 106.9244 282.4706 14.34221509900053*IRIDIUM 17 [-]|1 24870U 97034B   14260.47790832  .00000405  00000-0  13468-3 0  9485|2 24870  86.3922  80.6266 0001704 129.8001 259.6753 14.35293990900173*IRIDIUM 920 [-]|1 24871U 97034C   14260.49046484  .00000422  00000-0  13042-3 0  5826|2 24871  86.3941  69.2155 0012823  50.4314 329.3924 14.38985022901987*IRIDIUM 18 [+]|1 24872U 97034D   14260.43302662  .00000181  00000-0  57593-4 0  9639|2 24872  86.3922  81.6089 0002072 103.3056 256.8371 14.34216265900045*IRIDIUM 921 [-]|1 24873U 97034E   14260.40881699  .00006554  00000-0  45668-3 0   448|2 24873  86.3891 179.0518 0010819  81.9456  55.9660 15.05216623936699*IRIDIUM 26 [-]|1 24903U 97043A   14260.49980514  .00000408  00000-0  13694-3 0  1107|2 24903  86.3968 314.9048 0002284 106.5168  27.4570 14.34827788894022*IRIDIUM 25 [+]|1 24904U 97043B   14260.38134907  .00000356  00000-0  12002-3 0    61|2 24904  86.3962 315.0446 0002284 106.2988 253.8459 14.34218071893937*IRIDIUM 46 [+]|1 24905U 97043C   14260.46379943  .00000369  00000-0  12457-3 0  9946|2 24905  86.3971 315.4710 0002382 108.3147 251.8308 14.34214780893962*IRIDIUM 23 [S]|1 24906U 97043D   14260.25624973  .00000361  00000-0  12184-3 0   265|2 24906  86.3976 314.9932 0002574 102.1453 299.8879 14.34216596893943*IRIDIUM 22 [+]|1 24907U 97043E   14260.45844256  .00000374  00000-0  12646-3 0  9666|2 24907  86.3974 315.5652 0002364 108.8655  27.2647 14.34220058893968*IRIDIUM 29 [-]|1 24944U 97051A   14260.29138605  .00000217  00000-0  70274-4 0  9042|2 24944  86.4012 346.7073 0002350 111.2558 248.8889 14.34332659890519*IRIDIUM 32 [+]|1 24945U 97051B   14260.25156938  .00000146  00000-0  45048-4 0  9961|2 24945  86.4009 346.7576 0002394 111.5457 248.5994 14.34215824890522*IRIDIUM 33 [-]|1 24946U 97051C   14260.37151185  .00000266  00000-0  89798-4 0   733|2 24946  86.3926 346.7793 0005816 266.8748 136.4836 14.33184117890248*IRIDIUM 28 [-]|1 24948U 97051E   14260.37331175  .00000294  00000-0  96093-4 0  8155|2 24948  86.4015 346.4568 0001940 102.7121 300.9805 14.35105579890582*IRIDIUM 30 [+]|1 24949U 97051F   14260.24520277  .00000442  00000-0  15087-3 0   324|2 24949  86.4010 346.8409 0002421 109.5283 250.6175 14.34220384890509*IRIDIUM 31 [+]|1 24950U 97051G   14260.23888362  .00000439  00000-0  14985-3 0  9531|2 24950  86.4009 346.8461 0002395 116.0865 244.0578 14.34222091890518*IRIDIUM 19 [+]|1 24965U 97056A   14260.43256580  .00000423  00000-0  14394-3 0  9318|2 24965  86.4004  18.2537 0002256 112.5726 247.5709 14.34209759888681*IRIDIUM 35 [+]|1 24966U 97056B   14260.44526666  .00000403  00000-0  13699-3 0  9837|2 24966  86.4005  18.2517 0002257 112.1148 248.0288 14.34215816888663*IRIDIUM 36 [-]|1 24967U 97056C   14260.33795935  .00000367  00000-0  12164-3 0  9209|2 24967  86.4015  18.0662 0002224 114.4134 271.2975 14.35154754888865*IRIDIUM 37 [+]|1 24968U 97056D   14260.41990452  .00000428  00000-0  14563-3 0  9551|2 24968  86.4006  18.4193 0002274 113.2837 246.8598 14.34218619888668*IRIDIUM 34 [+]|1 24969U 97056E   14260.29939691  .00000426  00000-0  14493-3 0  9365|2 24969  86.4006  18.4078 0002272 112.0496 248.0942 14.34220930888641*IRIDIUM 43 [+]|1 25039U 97069A   14260.49642554  .00000037  00000-0  61803-5 0  9399|2 25039  86.3910  81.5018 0002070 113.7884 246.3529 14.34220232882453*IRIDIUM 41 [+]|1 25040U 97069B   14260.49586650  .00000177  00000-0  56257-4 0  9385|2 25040  86.3921  81.4784 0002067 101.4948 288.3532 14.34221376882457*IRIDIUM 40 [+]|1 25041U 97069C   14260.44571127  .00000183  00000-0  58117-4 0  9917|2 25041  86.3919  81.4421 0002061 106.5623 253.5799 14.34221502882464*IRIDIUM 39 [+]|1 25042U 97069D   14260.45207820  .00000039  00000-0  67887-5 0  9651|2 25042  86.3916  81.7217 0002073 112.6564 247.4851 14.34216172882449*IRIDIUM 38 [-]|1 25043U 97069E   14260.44544008  .00000393  00000-0  12977-3 0  9227|2 25043  86.3920  79.8053 0001333  76.2162 335.6475 14.35556799882702*IRIDIUM 42 [+]|1 25077U 97077A   14260.43927657  .00000243  00000-0  79743-4 0  9518|2 25077  86.3921  81.5587 0002068 106.8157 253.3266 14.34229203878303*IRIDIUM 44 [-]|1 25078U 97077B   14260.48840769  .00000445  00000-0  14180-3 0  4424|2 25078  86.3927  73.5332 0001126  54.6557 332.4777 14.37580108879402*IRIDIUM 45 [+]|1 25104U 97082A   14260.30185516  .00000406  00000-0  13827-3 0  8915|2 25104  87.0287 326.9957 0002292 100.3709 259.7746 14.34236426876480*IRIDIUM 24 [-]|1 25105U 97082B   14260.49755390  .00000375  00000-0  11412-3 0  4783|2 25105  86.3906 299.1315 0013054  57.4956  35.1233 14.39321643878451*IRIDIUM 47 [+]|1 25106U 97082C   14260.28201770  .00000333  00000-0  11186-3 0  8831|2 25106  86.3961 314.9903 0002468 106.3242   3.1965 14.34223527876475*IRIDIUM 49 [+]|1 25108U 97082E   14260.28189444  .00000351  00000-0  11839-3 0  9113|2 25108  86.3963 315.0665 0002381 107.6048 295.7325 14.34217909876485*IRIDIUM 52 [+]|1 25169U 98010A   14260.44689905  .00000246  00000-0  80898-4 0  6782|2 25169  86.3958  49.9137 0002125 111.3729 272.2647 14.34218936867913*IRIDIUM 56 [+]|1 25170U 98010B   14260.44074016  .00000150  00000-0  46663-4 0  7243|2 25170  86.3953  50.0073 0002230 105.8350 278.3003 14.34230521867891*IRIDIUM 54 [+]|1 25171U 98010C   14260.39794693  .00000241  00000-0  78862-4 0  9089|2 25171  86.3959  49.9496 0002158 111.6068 248.5357 14.34217057868053*IRIDIUM 50 [+]|1 25172U 98010D   14260.43395149  .00000232  00000-0  75671-4 0  9724|2 25172  86.3958  49.8963 0002161 111.4046 270.8491 14.34220111867892*IRIDIUM 53 [+]|1 25173U 98010E   14260.45296133  .00000210  00000-0  67866-4 0  9396|2 25173  86.3958  49.8947 0002153 111.8073 270.4496 14.34217230867901*IRIDIUM 51 [S]|1 25262U 98018A   14260.40075270  .00000192  00000-0  61509-4 0   584|2 25262  86.4012  18.5419 0002637 108.1707 251.9776 14.34214062867285*IRIDIUM 61 [+]|1 25263U 98018B   14260.42624928  .00000422  00000-0  14347-3 0  8599|2 25263  86.4007  18.3845 0002273 111.4213 248.7226 14.34219042862996*IRIDIUM 55 [+]|1 25272U 98019A   14260.35938001  .00000426  00000-0  14500-3 0  8621|2 25272  86.3987 346.6263 0001876 108.6213 251.5187 14.34213794862186*IRIDIUM 57 [+]|1 25273U 98019B   14260.40379769  .00000440  00000-0  15019-3 0  8945|2 25273  86.4013 346.8717 0002340 110.0134 250.1314 14.34218923862197*IRIDIUM 58 [+]|1 25274U 98019C   14260.34036996  .00000431  00000-0  14675-3 0  7431|2 25274  86.4015 347.0665 0002400 108.9326 251.2130 14.34220971862184*IRIDIUM 59 [+]|1 25275U 98019D   14260.34671211  .00000184  00000-0  58738-4 0  4999|2 25275  86.4010 346.9717 0002434 113.1114 247.0339 14.34217235862189*IRIDIUM 60 [+]|1 25276U 98019E   14260.35305560  .00000454  00000-0  15511-3 0  9628|2 25276  86.4007 346.6275 0002326 110.2899 249.8547 14.34218248862186*IRIDIUM 62 [+]|1 25285U 98021A   14260.17496062  .00000175  00000-0  55548-4 0  9242|2 25285  86.3921 283.5748 0002403 105.1996 254.9466 14.34218473861110*IRIDIUM 63 [+]|1 25286U 98021B   14260.49161965  .00000337  00000-0  11331-3 0  9688|2 25286  86.3949 283.7256 0002444 109.4136  52.6490 14.34231733861153*IRIDIUM 64 [+]|1 25287U 98021C   14260.46672109  .00000176  00000-0  55857-4 0  8775|2 25287  86.3921 283.4864 0002112 111.0545 249.0877 14.34219107861131*IRIDIUM 65 [+]|1 25288U 98021D   14260.50298436  .00000174  00000-0  54957-4 0  9047|2 25288  86.3920 283.3930 0002325 102.3034  52.2362 14.34219288861151*IRIDIUM 66 [+]|1 25289U 98021E   14260.21065091  .00000148  00000-0  45951-4 0  8544|2 25289  86.3919 283.4273 0002390 105.7753 307.6285 14.34216461861115*IRIDIUM 67 [+]|1 25290U 98021F   14260.20667278  .00000150  00000-0  46663-4 0  7060|2 25290  86.3920 283.5502 0002314 106.8443 253.3006 14.34217195861123*IRIDIUM 68 [+]|1 25291U 98021G   14260.21301659  .00000161  00000-0  50528-4 0  9317|2 25291  86.3921 283.6474 0002458 107.6276 252.5188 14.34219233861099*IRIDIUM 69 [-]|1 25319U 98026A   14260.28811131  .00000370  00000-0  11566-3 0  7285|2 25319  86.3982 307.9150 0001544  63.9490 341.6213 14.38126826858729*IRIDIUM 71 [-]|1 25320U 98026B   14260.22986800  .00000319  00000-0  97828-4 0  4407|2 25320  86.3961 304.3192 0003661  78.2089 327.5226 14.38602196859109*IRIDIUM 70 [+]|1 25342U 98032A   14260.17713497  .00000171  00000-0  54106-4 0  9528|2 25342  86.3927 283.8568 0002434 104.4199 299.6554 14.34217963855192*IRIDIUM 72 [+]|1 25343U 98032B   14260.23463730  .00000175  00000-0  55340-4 0  9545|2 25343  86.3921 283.5102 0002348 106.2164 300.0415 14.34219715855206*IRIDIUM 73 [-]|1 25344U 98032C   14260.44524797  .00000562  00000-0  14484-3 0  8238|2 25344  86.4381 266.9594 0002691 121.0721  39.1237 14.48358719862228*IRIDIUM 74 [S]|1 25345U 98032D   14260.50146512  .00000231  00000-0  63032-4 0  9936|2 25345  86.4433 283.6978 0001897 108.8209 345.2274 14.42949088858013*IRIDIUM 75 [+]|1 25346U 98032E   14260.17039399  .00000151  00000-0  46889-4 0  9734|2 25346  86.3922 283.7532 0002339 107.2064 294.8259 14.34216754855766*IRIDIUM 3 [+]|1 25431U 98048A   14260.29475581  .00000349  00000-0  11756-3 0  8772|2 25431  86.3968 315.3152 0002438 105.2817 298.9524 14.34218885841723*IRIDIUM 76 [+]|1 25432U 98048B   14260.31422521  .00000343  00000-0  11525-3 0  8107|2 25432  86.3965 315.0933 0002520 110.2443 296.2649 14.34217798841718*IRIDIUM 82 [+]|1 25467U 98051A   14260.48377265  .00000101  00000-0  28875-4 0   562|2 25467  86.3914  81.6243 0001803 103.2231 256.9166 14.34212318842755*IRIDIUM 81 [+]|1 25468U 98051B   14260.47740673  .00000164  00000-0  51380-4 0  8721|2 25468  86.3919  81.3281 0002112 108.6379 251.5046 14.34222293838976*IRIDIUM 80 [+]|1 25469U 98051C   14260.46464334  .00000196  00000-0  62999-4 0  8776|2 25469  86.3924  81.5757 0002061 107.0715 285.3005 14.34221335838979*IRIDIUM 77 [+]|1 25471U 98051E   14260.14237434  .00000165  00000-0  51820-4 0   660|2 25471  86.3915  81.3834 0002273 104.2260  32.4756 14.34216616844129*IRIDIUM 2 [-]|1 25527U 98066A   14260.46012068  .00006539  00000-0  41885-3 0  3604|2 25527  85.5254 262.0529 0012299 149.6911   2.2437 15.08311902866033*IRIDIUM 86 [+]|1 25528U 98066B   14260.07447376  .00000245  00000-0  80491-4 0  1384|2 25528  86.3949  49.5890 0002246 104.2981 255.8464 14.34218979835443*IRIDIUM 84 [+]|1 25530U 98066D   14260.45504244  .00000256  00000-0  84337-4 0  7782|2 25530  86.3951  49.5777 0002140 111.1347 249.0078 14.34219731833136*IRIDIUM 83 [+]|1 25531U 98066E   14260.41696166  .00000165  00000-0  51887-4 0  9093|2 25531  86.3954  49.6779 0002134 110.7529 249.3896 14.34211097830486*IRIDIUM 20 [+]|1 25577U 98074A   14260.47648577  .00000310  00000-0  10346-3 0  7826|2 25577  86.3964 314.9614 0002326 108.8533 251.2915 14.34215303824570*IRIDIUM 11 [+]|1 25578U 98074B   14260.44418078  .00000336  00000-0  11277-3 0   213|2 25578  86.3963 315.1864 0002203 107.0596  20.9185 14.34218382833530*IRIDIUM 14 [S]|1 25777U 99032A   14260.18966969  .00000175  00000-0  55362-4 0   728|2 25777  86.3923 283.5927 0002567  99.7290 303.2599 14.34227018810779*IRIDIUM 21 [+]|1 25778U 99032B   14260.45464884  .00000172  00000-0  54210-4 0  8836|2 25778  86.3920 283.5110 0002563 110.4227  23.8142 14.34219619804240*IRIDIUM 91 [+]|1 27372U 02005A   14260.40646184  .00000430  00000-0  14632-3 0  4838|2 27372  86.4024 347.2702 0001016 117.3092 289.3310 14.34219045667753*IRIDIUM 90 [S]|1 27373U 02005B   14260.39923008  .00000385  00000-0  10923-3 0  4748|2 27373  86.4464  49.6280 0004296 113.4497 246.7156 14.42964908666607*IRIDIUM 94 [S]|1 27374U 02005C   14260.25059441  .00000368  00000-0  12437-3 0  6436|2 27374  86.3965 315.3791 0004826 106.6209   4.4019 14.34218925672052*IRIDIUM 95 [+]|1 27375U 02005D   14260.29597139  .00000427  00000-0  14554-3 0  4348|2 27375  86.4024 347.1038 0002424 111.1716 248.9739 14.34218279667020*IRIDIUM 96 [S]|1 27376U 02005E   14260.41355678  .00000382  00000-0  12944-3 0  6414|2 27376  86.4034  18.4286 0004470 149.4062 210.7395 14.34216568672240*IRIDIUM 97 [+]|1 27450U 02031A   14260.45161514  .00000394  00000-0  13370-3 0  3643|2 27450  86.4003  18.4615 0001203 127.5199 232.6106 14.34217867646364*IRIDIUM 98 [S]|1 27451U 02031B   14260.44398252  .00000189  00000-0  60564-4 0  4892|2 27451  86.3914  81.8254 0001938 110.1660 273.3946 14.34220809647437*COSMOS 2413 (712)|1 28509U 04053B   14260.53586275  .00000001  00000-0  10000-3 0  7229|2 28509  63.1630 212.8557 0005769 185.9264 314.2448  2.13103033 75696*COSMOS 2419 (714)|1 28915U 05050A   14260.39890522  .00000030  00000-0  00000+0 0  4836|2 28915  65.0714  99.7363 0015584 357.1743  28.8097  2.13107394 67940*COSMOS 2425 (716)|1 29670U 06062A   14259.37821961 -.00000082  00000-0  10000-3 0  1847|2 29670  65.8483 338.6187 0020007 344.6899  47.4595  2.13105037 60123*COSMOS 2426 (717)|1 29671U 06062B   14260.44151368 -.00000080  00000-0  10000-3 0  2068|2 29671  65.8647 338.6518 0018564 167.0558 186.3008  2.13102967 60141*COSMOS 2424 (715)|1 29672U 06062C   14260.27538389 -.00000081  00000-0  10000-3 0  2074|2 29672  65.8499 338.5968 0017969 166.0025 238.0484  2.13102325 60142*COSMOS 2433 (720)|1 32275U 07052A   14260.38171550  .00000031  00000-0  10000-3 0  9264|2 32275  65.0865  99.4959 0001343 218.2697  54.0302  2.13104975 53657*COSMOS 2432 (719)|1 32276U 07052B   14259.29271031  .00000018  00000-0  10000-3 0  9140|2 32276  65.0980  99.5875 0011037 346.0114 126.1640  2.13104492 53637*COSMOS 2434 (721)|1 32393U 07065A   14259.28065686 -.00000082  00000-0  00000+0 0  7594|2 32393  65.4705 338.2481 0004897 130.1047 275.5939  2.13102871 52341*COSMOS 2435 (722)|1 32394U 07065B   14260.34710363 -.00000081  00000-0  10000-3 0  6732|2 32394  65.4745 338.2079 0020741   0.3294 108.6865  2.13112438 52307*COSMOS 2436 (723)|1 32395U 07065C   14260.09947781 -.00000081  00000-0  10000-3 0  6786|2 32395  65.4841 338.2533 0015195 352.2811  53.5303  2.13102908 52295*COSMOS 2442 (724)|1 33378U 08046A   14260.07564304  .00000027  00000-0  10000-3 0  7063|2 33378  65.0037  98.9295 0022197 332.1712 118.4735  2.13105214 46513*COSMOS 2443 (725)|1 33379U 08046B   14259.62409258  .00000022  00000-0  10000-3 0  6917|2 33379  65.0120  99.0007 0019419 179.7223 144.3549  2.13101571 46507*COSMOS 2456 (730)|1 36111U 09070A   14259.84568800  .00000019  00000-0  00000+0 0  4026|2 36111  64.2232 218.0046 0006110 298.5848 346.5508  2.13103084 37010*COSMOS 2457 (733)|1 36112U 09070B   14260.46144865  .00000012  00000-0  00000+0 0  3727|2 36112  64.2045 217.9248 0006926 181.4095 349.5275  2.13101607 37039*COSMOS 2458 (734)|1 36113U 09070C   14260.41917262  .00000013  00000-0  10000-3 0  3896|2 36113  64.2103 217.9277 0002003 290.0355 255.0392  2.13102018 37033*COSMOS 2459 (731)|1 36400U 10007A   14260.37088258  .00000031  00000-0  10000-3 0  3100|2 36400  64.9898  98.7293 0028560 356.8967 138.1973  2.13102516 35384*COSMOS 2461 (735)|1 36401U 10007B   14259.75749041  .00000023  00000-0  10000-3 0  2947|2 36401  64.9832  98.7371 0007259  86.9413 208.0712  2.13102587 35363*COSMOS 2460 (732)|1 36402U 10007C   14259.16934976  .00000017  00000-0  10000-3 0  3041|2 36402  64.9732  98.7416 0001882 123.6702 122.9631  2.13102142 35359*COSMOS 2466 (738)|1 37137U 10041A   14260.01003559 -.00000082  00000-0  10000-3 0  1800|2 37137  65.0543 338.6581 0022318 154.9907 314.1610  2.13102487 31458*COSMOS 2465 (737)|1 37138U 10041B   14260.13702975 -.00000082  00000-0  00000+0 0  1841|2 37138  65.0715 338.7143 0036455 168.4422 219.9840  2.13102853 31458*COSMOS 2464 (736)|1 37139U 10041C   14259.77609242 -.00000083  00000-0  00000+0 0  1686|2 37139  65.0744 338.7175 0019565  15.0989 230.9530  2.13102749 31446*COSMOS 2471 (701K)|1 37372U 11009A   14260.04812367  .00000027  00000-0  10000-3 0   553|2 37372  64.9853  98.6536 0005346 227.5063 102.3432  2.13112461 27655*COSMOS 2474 (742)|1 37829U 11055A   14259.36503313  .00000025  00000-0  00000+0 0  8799|2 37829  64.5463 218.1691 0010037 258.2217 242.5106  2.13101954 23006*COSMOS 2476 (744)|1 37867U 11064A   14259.83766157  .00000020  00000-0  00000+0 0  8368|2 37867  64.5265 218.2506 0018649 253.6949 295.1651  2.13102078 22367*COSMOS 2477 (745)|1 37868U 11064B   14260.39799671  .00000014  00000-0  00000+0 0  8339|2 37868  64.5353 218.2649 0016704 255.0560 183.3164  2.13101947 22337*COSMOS 2475 (743)|1 37869U 11064C   14259.59391086  .00000023  00000-0  00000+0 0  8327|2 37869  64.5422 218.2747 0023300 279.3955 217.7749  2.13102254 22323*COSMOS 2478 (746)|1 37938U 11071A   14259.30482429  .00000018  00000-0  00000+0 0  8103|2 37938  65.0020  98.8849 0012190 232.3739  28.6697  2.13102477 21922*COSMOS 2485 (747)|1 39155U 13019A   14259.26489375  .00000026  00000-0  00000+0 0  4028|2 39155  64.6945 218.0809 0018679 248.7230 266.0384  2.13102198 10821*COSMOS 2492 (754)|1 39620U 14012A   14251.27714799  .00000051  00000-0  10000-3 0  1113|2 39620  64.8579  99.0887 0014951 339.6200 198.0532  2.13103658  3623*COSMOS 2500 (755)|1 40001U 14032A   14259.42533499  .00000019  00000-0  00000+0 0   838|2 40001  64.8007  98.8850 0006563 188.1302 345.3562  2.13103263  1991*